NORAD_CAT_ID,OBJECT_NAME,OBJECT_TYPE,EPOCH,MEAN_MOTION,ECCENTRICITY,INCLINATION,RA_OF_ASC_NODE,ARG_OF_PERICENTER,MEAN_ANOMALY,BSTAR,MEAN_MOTION_DOT,MEAN_MOTION_DDOT,TLE_LINE0,TLE_LINE1,TLE_LINE2,SEMIMAJOR_AXIS,PERIOD,APOGEE,PERIGEE,DECAYED
55779.0,STARLINK-5817,PAYLOAD,2024-05-05 08:46:26,14.98336502,0.0003049,69.9988,101.9471,270.1629,89.918,6.0585e-06,-2.1e-07,0.0,0 STARLINK-5817,1 55779U 23028AQ  24126.36557999 -.00000021  00000-0  60585-5 0  9999,2 55779  69.9988 101.9471 0003049 270.1629  89.9180 14.98336502 66176,6950.173,96.107,574.157,569.919,0.0
55779.0,STARLINK-5817,PAYLOAD,2024-05-06 04:00:03,14.98327994,0.0003059,69.9989,99.9274,270.1796,89.9012,6.4213e-05,6.73e-06,0.0,0 STARLINK-5817,1 55779U 23028AQ  24127.16670288  .00000673  00000-0  64213-4 0  9998,2 55779  69.9989  99.9274 0003059 270.1796  89.9012 14.98327994 66292,6950.199,96.107,574.19,569.938,0.0
55779.0,STARLINK-5817,PAYLOAD,2024-05-06 07:12:18,14.98332103,0.0002956,69.9989,99.5909,269.1174,90.9646,8.8916e-05,9.68e-06,0.0,0 STARLINK-5817,1 55779U 23028AQ  24127.30021945  .00000968  00000-0  88916-4 0  9997,2 55779  69.9989  99.5909 0002956 269.1174  90.9646 14.98332103 66312,6950.186,96.107,574.106,569.997,0.0
55779.0,STARLINK-5817,PAYLOAD,2024-05-06 21:37:31,14.983311,0.0002867,69.9995,98.0764,264.0912,95.992,-9.2153e-06,-2.03e-06,0.0,0 STARLINK-5817,1 55779U 23028AQ  24127.90106220 -.00000203  00000-0 -92153-5 0  9996,2 55779  69.9995  98.0764 0002867 264.0912  95.9920 14.98331100 66403,6950.189,96.107,574.047,570.062,0.0
55779.0,STARLINK-5817,PAYLOAD,2024-05-07 04:02:04,14.98330507,0.0002977,69.9988,97.4024,266.2672,93.8147,-3.0277e-05,-4.54e-06,0.0,0 STARLINK-5817,1 55779U 23028AQ  24128.16810273 -.00000454  00000-0 -30277-4 0  9991,2 55779  69.9988  97.4024 0002977 266.2672  93.8147 14.98330507 66448,6950.191,96.107,574.125,569.987,0.0
55779.0,STARLINK-5817,PAYLOAD,2024-05-07 08:50:28,14.98331221,0.0002922,69.9991,96.8974,266.603,93.4795,-1.7836e-05,-3.06e-06,0.0,0 STARLINK-5817,1 55779U 23028AQ  24128.36838168 -.00000306  00000-0 -17836-4 0  9998,2 55779  69.9991  96.8974 0002922 266.6030  93.4795 14.98331221 66473,6950.189,96.107,574.085,570.023,0.0
55779.0,STARLINK-5817,PAYLOAD,2024-05-07 15:15:00,14.98334211,0.0002943,69.9993,96.2236,271.8706,88.2116,-0.00013317,-1.682e-05,0.0,0 STARLINK-5817,1 55779U 23028AQ  24128.63542216 -.00001682  00000-0 -13317-3 0  9991,2 55779  69.9993  96.2236 0002943 271.8706  88.2116 14.98334211 66517,6950.18,96.107,574.09,569.999,0.0
55779.0,STARLINK-5817,PAYLOAD,2024-05-08 04:04:05,14.98326632,0.0002938,69.9991,94.8773,268.2837,91.7985,-3.7234e-05,-5.37e-06,0.0,0 STARLINK-5817,1 55779U 23028AQ  24129.16950549 -.00000537  00000-0 -37234-4 0  9995,2 55779  69.9991  94.8773 0002938 268.2837  91.7985 14.98326632 66593,6950.203,96.107,574.11,570.026,0.0
55779.0,STARLINK-5817,PAYLOAD,2024-05-08 07:16:21,14.98327637,0.0002975,69.999,94.5407,270.7418,89.34,-5.9815e-05,-8.07e-06,0.0,0 STARLINK-5817,1 55779U 23028AQ  24129.30302577 -.00000807  00000-0 -59815-4 0  9992,2 55779  69.9990  94.5407 0002975 270.7418  89.3400 14.98327637 66611,6950.2,96.107,574.133,569.998,0.0
55779.0,STARLINK-5817,PAYLOAD,2024-05-09 04:06:05,14.98331356,0.0003044,69.9992,92.3525,270.9538,89.1272,3.4211e-05,3.15e-06,0.0,0 STARLINK-5817,1 55779U 23028AQ  24130.17090137  .00000315  00000-0  34211-4 0  9990,2 55779  69.9992  92.3525 0003044 270.9538  89.1272 14.98331356 66745,6950.189,96.107,574.169,569.938,0.0
55779.0,STARLINK-5817,PAYLOAD,2024-05-09 07:18:21,14.98333131,0.0003022,69.9993,92.0159,270.9415,89.1397,5.4016e-05,5.52e-06,0.0,0 STARLINK-5817,1 55779U 23028AQ  24130.30441961  .00000552  00000-0  54016-4 0  9998,2 55779  69.9993  92.0159 0003022 270.9415  89.1397 14.98333131 66769,6950.183,96.107,574.149,569.948,0.0
55779.0,STARLINK-5817,PAYLOAD,2024-05-09 21:43:34,14.98327499,0.0003032,69.9993,90.5009,271.031,89.0502,6.4066e-05,6.71e-06,0.0,0 STARLINK-5817,1 55779U 23028AQ  24130.90526281  .00000671  00000-0  64066-4 0  9991,2 55779  69.9993  90.5009 0003032 271.0310  89.0502 14.98327499 66850,6950.201,96.107,574.173,569.958,0.0
55779.0,STARLINK-5817,PAYLOAD,2024-05-10 04:08:06,14.98332441,0.0003035,69.9994,89.8275,270.6854,89.3957,0.00010526,1.163e-05,0.0,0 STARLINK-5817,1 55779U 23028AQ  24131.17229842  .00001163  00000-0  10526-3 0  9992,2 55779  69.9994  89.8275 0003035 270.6854  89.3957 14.98332441 66892,6950.185,96.107,574.16,569.941,0.0
55779.0,STARLINK-5817,PAYLOAD,2024-05-10 07:20:23,14.98325634,0.0002867,69.9993,89.4913,270.2997,89.7834,1.5774e-06,-7.4e-07,0.0,0 STARLINK-5817,1 55779U 23028AQ  24131.30582564 -.00000074  00000-0  15774-5 0  9993,2 55779  69.9993  89.4913 0002867 270.2997  89.7834 14.98325634 66919,6950.206,96.107,574.064,570.079,0.0
55779.0,STARLINK-5817,PAYLOAD,2024-05-10 20:09:27,14.98338471,0.000282,69.9996,88.1448,271.6703,88.4133,4.1417e-05,4.01e-06,0.0,0 STARLINK-5817,1 55779U 23028AQ  24131.83989615  .00000401  00000-0  41417-4 0  9994,2 55779  69.9996  88.1448 0002820 271.6703  88.4133 14.98338471 66999,6950.167,96.106,573.992,570.072,0.0
55779.0,STARLINK-5817,PAYLOAD,2024-05-10 21:45:35,14.98338308,0.0002837,69.9996,87.9766,273.0477,87.0357,4.0313e-05,3.88e-06,0.0,0 STARLINK-5817,1 55779U 23028AQ  24131.90665599  .00000388  00000-0  40313-4 0  9992,2 55779  69.9996  87.9766 0002837 273.0477  87.0357 14.98338308 67006,6950.167,96.106,574.004,570.06,0.0
55779.0,STARLINK-5817,PAYLOAD,2024-05-11 04:10:06,14.98346446,0.000198,70.001,87.3017,233.7883,126.3094,0.00019878,2.281e-05,0.0,0 STARLINK-5817,1 55779U 23028AQ  24132.17368402  .00002281  00000-0  19878-3 0  9990,2 55779  70.0010  87.3017 0001980 233.7883 126.3094 14.98346446 67042,6950.142,96.106,573.383,570.631,0.0
55779.0,STARLINK-5817,PAYLOAD,2024-05-11 07:22:19,14.98381985,0.0002664,69.9998,86.9658,288.8082,71.2788,0.00051297,6.041e-05,0.0,0 STARLINK-5817,1 55779U 23028AQ  24132.30717262  .00006041  00000-0  51297-3 0  9996,2 55779  69.9998  86.9658 0002664 288.8082  71.2788 14.98381985 67069,6950.032,96.104,573.749,570.046,0.0
55779.0,STARLINK-5817,PAYLOAD,2024-05-11 20:11:25,14.98355951,0.0001647,69.9996,85.6195,269.1829,90.9141,0.00018532,2.12e-05,0.0,0 STARLINK-5817,1 55779U 23028AQ  24132.84126872  .00002120  00000-0  18532-3 0  9995,2 55779  69.9996  85.6195 0001647 269.1829  90.9141 14.98355951 67144,6950.113,96.105,573.122,570.833,0.0
55779.0,STARLINK-5817,PAYLOAD,2024-05-11 21:47:34,14.98337775,0.000266,69.9996,85.4512,262.9425,97.1432,-1.8032e-05,-3.08e-06,0.0,0 STARLINK-5817,1 55779U 23028AQ  24132.90804225 -.00000308  00000-0 -18032-4 0  9991,2 55779  69.9996  85.4512 0002660 262.9425  97.1432 14.98337775 67151,6950.169,96.107,573.883,570.185,0.0
55779.0,STARLINK-5817,PAYLOAD,2024-05-12 04:12:14,14.98251571,0.0002765,69.9997,84.7786,265.051,95.0334,-0.00096799,-0.000116,0.0,0 STARLINK-5817,1 55779U 23028AQ  24133.17516442 -.00011600  00000-0 -96799-3 0  9994,2 55779  69.9997  84.7786 0002765 265.0510  95.0334 14.98251571 67193,6950.435,96.112,574.222,570.379,0.0
55779.0,STARLINK-5817,PAYLOAD,2024-05-12 13:49:02,14.98265457,0.0003352,69.9989,83.7678,265.2682,94.8094,-0.00078728,-9.459e-05,0.0,0 STARLINK-5817,1 55779U 23028AQ  24133.57572431 -.00009459  00000-0 -78728-3 0  9999,2 55779  69.9989  83.7678 0003352 265.2682  94.8094 14.98265457 67253,6950.392,96.111,574.587,569.928,0.0
55779.0,STARLINK-5817,PAYLOAD,2024-05-12 21:49:41,14.98304447,0.0002397,70.0008,82.9248,265.7261,94.3624,-0.00044116,-5.349e-05,0.0,0 STARLINK-5817,1 55779U 23028AQ  24133.90950328 -.00005349  00000-0 -44116-3 0  9999,2 55779  70.0008  82.9248 0002397 265.7261  94.3624 14.98304447 67301,6950.272,96.109,573.803,570.471,0.0
55779.0,STARLINK-5817,PAYLOAD,2024-05-13 02:38:03,14.98328724,0.0002534,69.9999,82.4199,263.4281,96.6589,-0.00012748,-1.614e-05,0.0,0 STARLINK-5817,1 55779U 23028AQ  24134.10976129 -.00001614  00000-0 -12748-3 0  9996,2 55779  69.9999  82.4199 0002534 263.4281  96.6589 14.98328724 67339,6950.197,96.107,573.823,570.301,0.0
55779.0,STARLINK-5817,PAYLOAD,2024-05-13 13:50:59,14.98352232,0.0002748,69.9997,81.2433,276.8384,83.2462,-0.00031245,-3.821e-05,0.0,0 STARLINK-5817,1 55779U 23028AQ  24134.57707199 -.00003821  00000-0 -31245-3 0  9991,2 55779  69.9997  81.2433 0002748 276.8384  83.2462 14.98352232 67405,6950.124,96.106,573.899,570.079,0.0
55779.0,STARLINK-5817,PAYLOAD,2024-05-13 20:15:31,14.98327644,0.0002876,69.9994,80.5699,264.5608,95.5223,0.00017809,2.032e-05,0.0,0 STARLINK-5817,1 55779U 23028AQ  24134.84411356  .00002032  00000-0  17809-3 0  9999,2 55779  69.9994  80.5699 0002876 264.5608  95.5223 14.98327644 67447,6950.2,96.107,574.064,570.066,0.0
55779.0,STARLINK-5817,PAYLOAD,2024-05-14 13:53:00,14.98299704,0.0002984,70.0003,78.717,267.1027,92.979,0.00094646,0.00011209,0.0,0 STARLINK-5817,1 55779U 23028AQ  24135.57847958  .00011209  00000-0  94646-3 0  9991,2 55779  70.0003  78.7170 0002984 267.1027  92.9790 14.98299704 67555,6950.287,96.109,574.226,570.078,0.0
55779.0,STARLINK-5817,PAYLOAD,2024-05-14 21:53:41,14.98278903,0.0002884,69.9996,77.8768,262.5159,97.5672,0.001449,0.00017216,0.0,0 STARLINK-5817,1 55779U 23028AQ  24135.91228387  .00017216  00000-0  14490-2 0  9990,2 55779  69.9996  77.8768 0002884 262.5159  97.5672 14.98278903 67604,6950.351,96.11,574.22,570.211,0.0
55779.0,STARLINK-5817,PAYLOAD,2024-05-15 04:18:11,14.98358776,0.0003026,69.9998,77.2036,269.2196,90.8616,0.00026382,3.059e-05,0.0,0 STARLINK-5817,1 55779U 23028AQ  24136.17930017  .00003059  00000-0  26382-3 0  9993,2 55779  69.9998  77.2036 0003026 269.2196  90.8616 14.98358776 67647,6950.104,96.105,574.072,569.866,0.0
55779.0,STARLINK-5817,PAYLOAD,2024-05-15 05:54:19,14.9836039,0.0003019,69.9999,77.0353,269.2599,90.8214,0.00027637,3.209e-05,0.0,0 STARLINK-5817,1 55779U 23028AQ  24136.24605759  .00003209  00000-0  27637-3 0  9994,2 55779  69.9999  77.0353 0003019 269.2599  90.8214 14.98360390 67657,6950.099,96.105,574.062,569.866,0.0
